{"type": "FeatureCollection", "features": [ {"type": "Feature", "properties": {"norad_id": 44804, "name": "CARTOSAT-3", "group": "resource", "lat": 33.80061353591353, "lon": -121.7687963161721, "alt_km": 505.1920813651441, "timestamp": "2025-12-19T16:54:43.908801+00:00", "meta": {"OBJECT_NAME": "CARTOSAT-3", "OBJECT_ID": "2019-081A", "EPOCH": "2025-12-19T06:47:21.389280", "MEAN_MOTION": 15.19204541, "ECCENTRICITY": 0.00140016, "INCLINATION": 97.4583, "RA_OF_ASC_NODE": 52.7834, "ARG_OF_PERICENTER": 63.0163, "MEAN_ANOMALY": 297.25, "EPHEMERIS_TYPE": 0, "CLASSIFICATION_TYPE": "U", "NORAD_CAT_ID": 44804, "ELEMENT_SET_NO": 999, "REV_AT_EPOCH": 33615, "BSTAR": 0.00011862827, "MEAN_MOTION_DOT": 2.434e-05, "MEAN_MOTION_DDOT": 0}, "tle": {"line1": "1 44804U 19081A   25353.28288645  .00002434  00000+0  11863-3 0  9994", "line2": "2 44804  97.4583  52.7834 0014001  63.0163 297.2500 15.19204541336157"}}, "geometry": {"type": "Point", "coordinates": [-121.7687963161721, 33.80061353591353]}}, {"type": "Feature", "properties": {"norad_id": 44819, "name": "GAOFEN-12 01", "group": "resource", "lat": 4.859958376751883, "lon": -0.8660333255525862, "alt_km": 630.7781576134921, "timestamp": "2025-12-19T16:54:43.908812+00:00", "meta": {"OBJECT_NAME": "GAOFEN-12 01", "OBJECT_ID": "2019-082A", "EPOCH": "2025-12-19T07:09:31.641696", "MEAN_MOTION": 14.80664637, "ECCENTRICITY": 0.00017371, "INCLINATION": 97.8124, "RA_OF_ASC_NODE": 359.4071, "ARG_OF_PERICENTER": 199.824, "MEAN_ANOMALY": 160.2906, "EPHEMERIS_TYPE": 0, "CLASSIFICATION_TYPE": "U", "NORAD_CAT_ID": 44819, "ELEMENT_SET_NO": 999, "REV_AT_EPOCH": 32747, "BSTAR": 5.3342294e-05, "MEAN_MOTION_DOT": 3.59e-06, "MEAN_MOTION_DDOT": 0}, "tle": {"line1": "1 44819U 19082A   25353.29828289  .00000359  00000+0  53342-4 0  9999", "line2": "2 44819  97.8124 359.4071 0001737 199.8240 160.2906 14.80664637327471"}}, "geometry": {"type": "Point", "coordinates": [-0.8660333255525862, 4.859958376751883]}}, {"type": "Feature", "properties": {"norad_id": 44873, "name": "CSG-1", "group": "resource", "lat": 26.237894811376773, "lon": -1.1619032109753449, "alt_km": 621.2692127327009, "timestamp": "2025-12-19T16:54:43.908822+00:00", "meta": {"OBJECT_NAME": "CSG-1", "OBJECT_ID": "2019-092A", "EPOCH": "2025-12-19T06:30:03.506688", "MEAN_MOTION": 14.82148745, "ECCENTRICITY": 0.00014909, "INCLINATION": 97.8803, "RA_OF_ASC_NODE": 174.4966, "ARG_OF_PERICENTER": 86.3391, "MEAN_ANOMALY": 273.7993, "EPHEMERIS_TYPE": 0, "CLASSIFICATION_TYPE": "U", "NORAD_CAT_ID": 44873, "ELEMENT_SET_NO": 999, "REV_AT_EPOCH": 32482, "BSTAR": 5.9281995e-05, "MEAN_MOTION_DOT": 4.2e-06, "MEAN_MOTION_DDOT": 0}, "tle": {"line1": "1 44873U 19092A   25353.27087392  .00000420  00000+0  59282-4 0  9998", "line2": "2 44873  97.8803 174.4966 0001490  86.3391 273.7993 14.82148745324827"}}, "geometry": {"type": "Point", "coordinates": [-1.1619032109753449, 26.237894811376773]}}, {"type": "Feature", "properties": {"norad_id": 46277, "name": "NEMO-HD", "group": "resource", "lat": -29.787993372479843, "lon": 56.876614802128515, "alt_km": 450.61978419501156, "timestamp": "2025-12-19T16:54:43.908833+00:00", "meta": {"OBJECT_NAME": "NEMO-HD", "OBJECT_ID": "2020-061F", "EPOCH": "2025-12-19T06:07:45.869664", "MEAN_MOTION": 15.40456939, "ECCENTRICITY": 0.00014669, "INCLINATION": 97.2207, "RA_OF_ASC_NODE": 52.271, "ARG_OF_PERICENTER": 52.3145, "MEAN_ANOMALY": 307.8234, "EPHEMERIS_TYPE": 0, "CLASSIFICATION_TYPE": "U", "NORAD_CAT_ID": 46277, "ELEMENT_SET_NO": 999, "REV_AT_EPOCH": 29424, "BSTAR": 0.00020365625, "MEAN_MOTION_DOT": 8.166e-05, "MEAN_MOTION_DDOT": 0}, "tle": {"line1": "1 46277U 20061F   25353.25539201  .00008166  00000+0  20366-3 0  9990", "line2": "2 46277  97.2207  52.2710 0001466  52.3145 307.8234 15.40456939294243"}}, "geometry": {"type": "Point", "coordinates": [56.876614802128515, -29.787993372479843]}}, {"type": "Feature", "properties": {"norad_id": 46984, "name": "SENTINEL-6A", "group": "resource", "lat": 5.701203650559417, "lon": -34.70254871154163, "alt_km": 1339.4240238845205, "timestamp": "2025-12-19T16:54:43.908843+00:00", "meta": {"OBJECT_NAME": "SENTINEL-6A", "OBJECT_ID": "2020-086A", "EPOCH": "2025-12-19T02:53:28.162176", "MEAN_MOTION": 12.80930822, "ECCENTRICITY": 0.00077124, "INCLINATION": 66.0393, "RA_OF_ASC_NODE": 149.0549, "ARG_OF_PERICENTER": 269.3244, "MEAN_ANOMALY": 90.6888, "EPHEMERIS_TYPE": 0, "CLASSIFICATION_TYPE": "U", "NORAD_CAT_ID": 46984, "ELEMENT_SET_NO": 999, "REV_AT_EPOCH": 23726, "BSTAR": -2.1643773e-05, "MEAN_MOTION_DOT": -6.6e-07, "MEAN_MOTION_DDOT": 0}, "tle": {"line1": "1 46984U 20086A   25353.12046484 -.00000066  00000+0 -21644-4 0  9998", "line2": "2 46984  66.0393 149.0549 0007712 269.3244  90.6888 12.80930822237263"}}, "geometry": {"type": "Point", "coordinates": [-34.70254871154163, 5.701203650559417]}}, {"type": "Feature", "properties": {"norad_id": 48079, "name": "GAOFEN-12 02", "group": "resource", "lat": 16.54476622101686, "lon": -14.712369973716228, "alt_km": 626.9384194245749, "timestamp": "2025-12-19T16:54:43.908854+00:00", "meta": {"OBJECT_NAME": "GAOFEN-12 02", "OBJECT_ID": "2021-026A", "EPOCH": "2025-12-19T07:06:20.875680", "MEAN_MOTION": 14.80682608, "ECCENTRICITY": 0.00035997, "INCLINATION": 97.9853, "RA_OF_ASC_NODE": 347.2709, "ARG_OF_PERICENTER": 88.0868, "MEAN_ANOMALY": 272.0757, "EPHEMERIS_TYPE": 0, "CLASSIFICATION_TYPE": "U", "NORAD_CAT_ID": 48079, "ELEMENT_SET_NO": 999, "REV_AT_EPOCH": 25514, "BSTAR": 5.438468e-05, "MEAN_MOTION_DOT": 3.65e-06, "MEAN_MOTION_DDOT": 0}, "tle": {"line1": "1 48079U 21026A   25353.29607495  .00000365  00000+0  54385-4 0  9991", "line2": "2 48079  97.9853 347.2709 0003599  88.0868 272.0757 14.80682608255147"}}, "geometry": {"type": "Point", "coordinates": [-14.712369973716228, 16.54476622101686]}}, {"type": "Feature", "properties": {"norad_id": 48268, "name": "PLEIADES NEO 3", "group": "resource", "lat": 69.76667252186955, "lon": -91.83792303680478, "alt_km": 616.4225870041146, "timestamp": "2025-12-19T16:54:43.908864+00:00", "meta": {"OBJECT_NAME": "PLEIADES NEO 3", "OBJECT_ID": "2021-034A", "EPOCH": "2025-12-19T06:41:56.338656", "MEAN_MOTION": 14.81671723, "ECCENTRICITY": 0.0001318, "INCLINATION": 97.8951, "RA_OF_ASC_NODE": 65.6266, "ARG_OF_PERICENTER": 90.0597, "MEAN_ANOMALY": 270.0767, "EPHEMERIS_TYPE": 0, "CLASSIFICATION_TYPE": "U", "NORAD_CAT_ID": 48268, "ELEMENT_SET_NO": 999, "REV_AT_EPOCH": 25101, "BSTAR": 8.4114115e-05, "MEAN_MOTION_DOT": 6.1e-06, "MEAN_MOTION_DDOT": 0}, "tle": {"line1": "1 48268U 21034A   25353.27912429  .00000610  00000+0  84114-4 0  9990", "line2": "2 48268  97.8951  65.6266 0001318  90.0597 270.0767 14.81671723251011"}}, "geometry": {"type": "Point", "coordinates": [-91.83792303680478, 69.76667252186955]}}, {"type": "Feature", "properties": {"norad_id": 49070, "name": "PLEIADES NEO 4", "group": "resource", "lat": -69.77850459854889, "lon": 88.17320321678493, "alt_km": 632.2058198858549, "timestamp": "2025-12-19T16:54:43.908874+00:00", "meta": {"OBJECT_NAME": "PLEIADES NEO 4", "OBJECT_ID": "2021-073E", "EPOCH": "2025-12-19T05:53:17.815776", "MEAN_MOTION": 14.81674999, "ECCENTRICITY": 0.00013207, "INCLINATION": 97.8952, "RA_OF_ASC_NODE": 65.5893, "ARG_OF_PERICENTER": 92.9573, "MEAN_ANOMALY": 267.1791, "EPHEMERIS_TYPE": 0, "CLASSIFICATION_TYPE": "U", "NORAD_CAT_ID": 49070, "ELEMENT_SET_NO": 999, "REV_AT_EPOCH": 23472, "BSTAR": 7.7654411e-05, "MEAN_MOTION_DOT": 5.59e-06, "MEAN_MOTION_DDOT": 0}, "tle": {"line1": "1 49070U 21073E   25353.24534509  .00000559  00000+0  77654-4 0  9994", "line2": "2 49070  97.8952  65.5893 0001320  92.9573 267.1791 14.81674999234728"}}, "geometry": {"type": "Point", "coordinates": [88.17320321678493, -69.77850459854889]}}, {"type": "Feature", "properties": {"norad_id": 49260, "name": "LANDSAT 9", "group": "resource", "lat": 49.57066104818489, "lon": 51.95935513825022, "alt_km": 697.4134855636648, "timestamp": "2025-12-19T16:54:43.908884+00:00", "meta": {"OBJECT_NAME": "LANDSAT 9", "OBJECT_ID": "2021-088A", "EPOCH": "2025-12-19T05:08:44.723328", "MEAN_MOTION": 14.57104319, "ECCENTRICITY": 0.00011128, "INCLINATION": 98.2087, "RA_OF_ASC_NODE": 61.2314, "ARG_OF_PERICENTER": 90.8909, "MEAN_ANOMALY": 269.2417, "EPHEMERIS_TYPE": 0, "CLASSIFICATION_TYPE": "U", "NORAD_CAT_ID": 49260, "ELEMENT_SET_NO": 999, "REV_AT_EPOCH": 22479, "BSTAR": 8.1995753e-05, "MEAN_MOTION_DOT": 3.24e-06, "MEAN_MOTION_DDOT": 0}, "tle": {"line1": "1 49260U 21088A   25353.21440652  .00000324  00000+0  81996-4 0  9997", "line2": "2 49260  98.2087  61.2314 0001112  90.8909 269.2417 14.57104319224794"}}, "geometry": {"type": "Point", "coordinates": [51.95935513825022, 49.57066104818489]}}, {"type": "Feature", "properties": {"norad_id": 51444, "name": "CSG-2", "group": "resource", "lat": -26.477811578505793, "lon": 178.87767206921285, "alt_km": 628.6200247044717, "timestamp": "2025-12-19T16:54:43.908894+00:00", "meta": {"OBJECT_NAME": "CSG-2", "OBJECT_ID": "2022-008A", "EPOCH": "2025-12-19T07:18:39.872160", "MEAN_MOTION": 14.8214896, "ECCENTRICITY": 0.00014619, "INCLINATION": 97.8798, "RA_OF_ASC_NODE": 174.5282, "ARG_OF_PERICENTER": 83.7149, "MEAN_ANOMALY": 276.4231, "EPHEMERIS_TYPE": 0, "CLASSIFICATION_TYPE": "U", "NORAD_CAT_ID": 51444, "ELEMENT_SET_NO": 999, "REV_AT_EPOCH": 20994, "BSTAR": 1.545079e-06, "MEAN_MOTION_DOT": -4e-07, "MEAN_MOTION_DDOT": 0}, "tle": {"line1": "1 51444U 22008A   25353.30462815 -.00000040  00000+0  15451-5 0  9992", "line2": "2 51444  97.8798 174.5282 0001461  83.7149 276.4231 14.82148960209943"}}, "geometry": {"type": "Point", "coordinates": [178.87767206921285, -26.477811578505793]}}]}